[
    {
        "Altitude(m)": 607897.6396224946,
        "Argument of Periapsis(deg)": 0.0,
        "Eccentricity": 0.0,
        "Inclination(deg)": 60.0,
        "Latitude(deg)": -14.293075403906537,
        "Longitude(deg)": -118.38125773256904,
        "Mean Anomaly(deg)": -16.363599999999984,
        "RAAN(deg)": 350.0,
        "Satellite Name": "Test1 1561",
        "Satellite Number": 1561,
        "Semi-Major Axis(m)": 6980739.136638005,
        "Time(s)": 0
    },
    {
        "Altitude(m)": 607750.840092052,
        "Argument of Periapsis(deg)": 0.00010418945913296404,
        "Eccentricity": 0.0,
        "Inclination(deg)": 60.0,
        "Latitude(deg)": -13.758917065451339,
        "Longitude(deg)": -118.0941881355583,
        "Mean Anomaly(deg)": -15.743493854538132,
        "RAAN(deg)": 349.99957995086027,
        "Satellite Name": "Test1 1561",
        "Satellite Number": 1561,
        "Semi-Major Axis(m)": 6980739.136638005,
        "Time(s)": 10
    },
    {
        "Altitude(m)": 607606.5648327918,
        "Argument of Periapsis(deg)": 0.0002083789182659281,
        "Eccentricity": 0.0,
        "Inclination(deg)": 60.0,
        "Latitude(deg)": -13.22428397485762,
        "Longitude(deg)": -117.80859495459951,
        "Mean Anomaly(deg)": -15.123387709076383,
        "RAAN(deg)": 349.9991599017205,
        "Satellite Name": "Test1 1561",
        "Satellite Number": 1561,
        "Semi-Major Axis(m)": 6980739.136638005,
        "Time(s)": 20
    },
    {
        "Altitude(m)": 607464.8582172205,
        "Argument of Periapsis(deg)": 0.00031256837739889213,
        "Eccentricity": 0.0,
        "Inclination(deg)": 60.0,
        "Latitude(deg)": -12.689196436734571,
        "Longitude(deg)": -117.5244135101073,
        "Mean Anomaly(deg)": -14.503281563614477,
        "RAAN(deg)": 349.9987398525808,
        "Satellite Name": "Test1 1561",
        "Satellite Number": 1561,
        "Semi-Major Axis(m)": 6980739.136638005,
        "Time(s)": 30
    },
    {
        "Altitude(m)": 607325.7633407625,
        "Argument of Periapsis(deg)": 0.0004167578365318562,
        "Eccentricity": 0.0,
        "Inclination(deg)": 60.0,
        "Latitude(deg)": -12.15367448314287,
        "Longitude(deg)": -117.24157946515831,
        "Mean Anomaly(deg)": -13.883175418152726,
        "RAAN(deg)": 349.998319803441,
        "Satellite Name": "Test1 1561",
        "Satellite Number": 1561,
        "Semi-Major Axis(m)": 6980739.136638005,
        "Time(s)": 40
    },
    {
        "Altitude(m)": 607189.3220034459,
        "Argument of Periapsis(deg)": 0.0005209472956648203,
        "Eccentricity": 0.0,
        "Inclination(deg)": 60.0,
        "Latitude(deg)": -11.617737887534197,
        "Longitude(deg)": -116.96002979395666,
        "Mean Anomaly(deg)": -13.263069272690874,
        "RAAN(deg)": 349.9978997543013,
        "Satellite Name": "Test1 1561",
        "Satellite Number": 1561,
        "Semi-Major Axis(m)": 6980739.136638005,
        "Time(s)": 50
    },
    {
        "Altitude(m)": 607055.5746922093,
        "Argument of Periapsis(deg)": 0.0006251367547977843,
        "Eccentricity": 0.0,
        "Inclination(deg)": 60.0,
        "Latitude(deg)": -11.081406178338725,
        "Longitude(deg)": -116.67970223810426,
        "Mean Anomaly(deg)": -12.642963127229121,
        "RAAN(deg)": 349.99747970516154,
        "Satellite Name": "Test1 1561",
        "Satellite Number": 1561,
        "Semi-Major Axis(m)": 6980739.136638005,
        "Time(s)": 60
    },
    {
        "Altitude(m)": 606924.560563838,
        "Argument of Periapsis(deg)": 0.0007293262139307483,
        "Eccentricity": 0.0,
        "Inclination(deg)": 60.0,
        "Latitude(deg)": -10.544698652214503,
        "Longitude(deg)": -116.40053476351632,
        "Mean Anomaly(deg)": -12.02285698176722,
        "RAAN(deg)": 349.9970596560218,
        "Satellite Name": "Test1 1561",
        "Satellite Number": 1561,
        "Semi-Major Axis(m)": 6980739.136638005,
        "Time(s)": 70
    },
    {
        "Altitude(m)": 606796.3174285812,
        "Argument of Periapsis(deg)": 0.0008335156730637124,
        "Eccentricity": 0.0,
        "Inclination(deg)": 60.0,
        "Latitude(deg)": -10.00763438697873,
        "Longitude(deg)": -116.12246653083119,
        "Mean Anomaly(deg)": -11.402750836305467,
        "RAAN(deg)": 349.99663960688207,
        "Satellite Name": "Test1 1561",
        "Satellite Number": 1561,
        "Semi-Major Axis(m)": 6980739.136638005,
        "Time(s)": 80
    },
    {
        "Altitude(m)": 606670.8817343763,
        "Argument of Periapsis(deg)": 0.0009377051321966765,
        "Eccentricity": 0.0,
        "Inclination(deg)": 60.0,
        "Latitude(deg)": -9.470232254238619,
        "Longitude(deg)": -115.8454373535345,
        "Mean Anomaly(deg)": -10.782644690843615,
        "RAAN(deg)": 349.99621955774234,
        "Satellite Name": "Test1 1561",
        "Satellite Number": 1561,
        "Semi-Major Axis(m)": 6980739.136638005,
        "Time(s)": 90
    },
    {
        "Altitude(m)": 606548.2885517756,
        "Argument of Periapsis(deg)": 0.0010418945913296407,
        "Eccentricity": 0.0,
        "Inclination(deg)": 60.0,
        "Latitude(deg)": -8.932510931741268,
        "Longitude(deg)": -115.5693871566448,
        "Mean Anomaly(deg)": -10.16253854538176,
        "RAAN(deg)": 349.99579950860254,
        "Satellite Name": "Test1 1561",
        "Satellite Number": 1561,
        "Semi-Major Axis(m)": 6980739.136638005,
        "Time(s)": 100
    },
    {
        "Altitude(m)": 606428.5715595155,
        "Argument of Periapsis(deg)": 0.0011460840504626045,
        "Eccentricity": 0.0,
        "Inclination(deg)": 60.0,
        "Latitude(deg)": -8.394488915455133,
        "Longitude(deg)": -115.29425694880385,
        "Mean Anomaly(deg)": -9.542432399919958,
        "RAAN(deg)": 349.99537945946287,
        "Satellite Name": "Test1 1561",
        "Satellite Number": 1561,
        "Semi-Major Axis(m)": 6980739.136638005,
        "Time(s)": 110
    },
    {
        "Altitude(m)": 606311.7630308113,
        "Argument of Periapsis(deg)": 0.0012502735095955685,
        "Eccentricity": 0.0,
        "Inclination(deg)": 60.0,
        "Latitude(deg)": -7.856184531404291,
        "Longitude(deg)": -115.01998828199467,
        "Mean Anomaly(deg)": -8.922326254458106,
        "RAAN(deg)": 349.9949594103231,
        "Satellite Name": "Test1 1561",
        "Satellite Number": 1561,
        "Semi-Major Axis(m)": 6980739.136638005,
        "Time(s)": 120
    },
    {
        "Altitude(m)": 606197.8938202666,
        "Argument of Periapsis(deg)": 0.0013544629687285324,
        "Eccentricity": 0.0,
        "Inclination(deg)": 60.0,
        "Latitude(deg)": -7.3176159472701885,
        "Longitude(deg)": -114.74652271173251,
        "Mean Anomaly(deg)": -8.302220108996252,
        "RAAN(deg)": 349.99453936118334,
        "Satellite Name": "Test1 1561",
        "Satellite Number": 1561,
        "Semi-Major Axis(m)": 6980739.136638005,
        "Time(s)": 130
    },
    {
        "Altitude(m)": 606086.9933515586,
        "Argument of Periapsis(deg)": 0.0014586524278614966,
        "Eccentricity": 0.0,
        "Inclination(deg)": 60.0,
        "Latitude(deg)": -6.778801183774692,
        "Longitude(deg)": -114.47380277057253,
        "Mean Anomaly(deg)": -7.6821139635344,
        "RAAN(deg)": 349.9941193120436,
        "Satellite Name": "Test1 1561",
        "Satellite Number": 1561,
        "Semi-Major Axis(m)": 6980739.136638005,
        "Time(s)": 140
    },
    {
        "Altitude(m)": 605979.0896057604,
        "Argument of Periapsis(deg)": 0.0015628418869944607,
        "Eccentricity": 0.0,
        "Inclination(deg)": 60.0,
        "Latitude(deg)": -6.239758125863511,
        "Longitude(deg)": -114.20177142915765,
        "Mean Anomaly(deg)": -7.062007818072598,
        "RAAN(deg)": 349.9936992629039,
        "Satellite Name": "Test1 1561",
        "Satellite Number": 1561,
        "Semi-Major Axis(m)": 6980739.136638005,
        "Time(s)": 150
    },
    {
        "Altitude(m)": 605874.2091104189,
        "Argument of Periapsis(deg)": 0.0016670313461274247,
        "Eccentricity": 0.0,
        "Inclination(deg)": 60.0,
        "Latitude(deg)": -5.700504533703395,
        "Longitude(deg)": -113.93037155765079,
        "Mean Anomaly(deg)": -6.4419016726107445,
        "RAAN(deg)": 349.99327921376414,
        "Satellite Name": "Test1 1561",
        "Satellite Number": 1561,
        "Semi-Major Axis(m)": 6980739.136638005,
        "Time(s)": 160
    },
    {
        "Altitude(m)": 605772.3769292999,
        "Argument of Periapsis(deg)": 0.0017712208052603888,
        "Eccentricity": 0.0,
        "Inclination(deg)": 60.0,
        "Latitude(deg)": -5.161058053507284,
        "Longitude(deg)": -113.65954690039581,
        "Mean Anomaly(deg)": -5.821795527148891,
        "RAAN(deg)": 349.9928591646244,
        "Satellite Name": "Test1 1561",
        "Satellite Number": 1561,
        "Semi-Major Axis(m)": 6980739.136638005,
        "Time(s)": 170
    },
    {
        "Altitude(m)": 605673.6166528901,
        "Argument of Periapsis(deg)": 0.001875410264393353,
        "Eccentricity": 0.0,
        "Inclination(deg)": 60.0,
        "Latitude(deg)": -4.621436228204201,
        "Longitude(deg)": -113.38924153803178,
        "Mean Anomaly(deg)": -5.201689381687038,
        "RAAN(deg)": 349.9924391154846,
        "Satellite Name": "Test1 1561",
        "Satellite Number": 1561,
        "Semi-Major Axis(m)": 6980739.136638005,
        "Time(s)": 180
    },
    {
        "Altitude(m)": 605577.950389613,
        "Argument of Periapsis(deg)": 0.0019795997235263173,
        "Eccentricity": 0.0,
        "Inclination(deg)": 60.0,
        "Latitude(deg)": -4.0816565079675975,
        "Longitude(deg)": -113.11939934990285,
        "Mean Anomaly(deg)": -4.581583236225236,
        "RAAN(deg)": 349.99201906634494,
        "Satellite Name": "Test1 1561",
        "Satellite Number": 1561,
        "Semi-Major Axis(m)": 6980739.136638005,
        "Time(s)": 190
    }
]